[{"OBJECT_NAME":"YUNHAI-1 03","OBJECT_ID":"2022-115A","EPOCH":"2026-03-09T22:42:18.502272","MEAN_MOTION":14.32645592,"ECCENTRICITY":0.00045037,"INCLINATION":98.5539,"RA_OF_ASC_NODE":68.3628,"ARG_OF_PERICENTER":355.0463,"MEAN_ANOMALY":5.0676,"EPHEMERIS_TYPE":0,"CLASSIFICATION_TYPE":"U","NORAD_CAT_ID":53877,"ELEMENT_SET_NO":999,"REV_AT_EPOCH":18130,"BSTAR":0.00016609215,"MEAN_MOTION_DOT":4.08e-6,"MEAN_MOTION_DDOT":0},{"OBJECT_NAME":"SPIRALE A","OBJECT_ID":"2009-008C","EPOCH":"2026-03-09T20:21:08.583264","MEAN_MOTION":4.6613873,"ECCENTRICITY":0.56047463,"INCLINATION":2.1108,"RA_OF_ASC_NODE":2.2684,"ARG_OF_PERICENTER":28.8006,"MEAN_ANOMALY":353.0034,"EPHEMERIS_TYPE":0,"CLASSIFICATION_TYPE":"U","NORAD_CAT_ID":33751,"ELEMENT_SET_NO":999,"REV_AT_EPOCH":25756,"BSTAR":0.0019547185,"MEAN_MOTION_DOT":0.00013902,"MEAN_MOTION_DDOT":0}]
